{
  "type": "FeatureCollection",
  "features": [
    {
      "type": "Feature",
      "properties": {
        "norad_id": 26766,
        "name": "INTELSAT 10 (IS-10)",
        "group": "intelsat",
        "lat": 7.781200800817885,
        "lon": 177.20332922972904,
        "alt_km": 36136.34904704103,
        "timestamp": "2025-12-19T22:41:52.046689+00:00",
        "meta_object_name": "INTELSAT 10 (IS-10)",
        "meta_object_id": "2001-019A",
        "meta_epoch": "2025-12-19T15:02:53.398752",
        "meta_mean_motion": 0.99075517,
        "meta_eccentricity": 0.0007692,
        "meta_inclination": 8.645,
        "meta_ra_of_asc_node": 61.088,
        "meta_arg_of_pericenter": 228.4754,
        "meta_mean_anomaly": 133.7764,
        "meta_ephemeris_type": 0,
        "meta_classification_type": "U",
        "meta_norad_cat_id": 26766,
        "meta_element_set_no": 999,
        "meta_rev_at_epoch": 4380,
        "meta_bstar": 0,
        "meta_mean_motion_dot": -1.34e-06,
        "meta_mean_motion_ddot": 0,
        "tle_line1": "1 26766U 01019A   25353.62700693 -.00000134  00000+0  00000+0 0  9996",
        "tle_line2": "2 26766   8.6450  61.0880 0007692 228.4754 133.7764  0.99075517 43800"
      },
      "geometry": {
        "type": "Point",
        "coordinates": [
          177.20332922972904,
          7.781200800817885
        ]
      }
    },
    {
      "type": "Feature",
      "properties": {
        "norad_id": 26900,
        "name": "INTELSAT 902 (IS-902)",
        "group": "intelsat",
        "lat": -4.621082230551376,
        "lon": 19.296991733989362,
        "alt_km": 35795.59983178765,
        "timestamp": "2025-12-19T22:41:52.046713+00:00",
        "meta_object_name": "INTELSAT 902 (IS-902)",
        "meta_object_id": "2001-039A",
        "meta_epoch": "2025-12-15T13:09:02.081664",
        "meta_mean_motion": 1.0027087,
        "meta_eccentricity": 0.00045028,
        "meta_inclination": 5.6536,
        "meta_ra_of_asc_node": 74.0372,
        "meta_arg_of_pericenter": 189.6359,
        "meta_mean_anomaly": 327.9329,
        "meta_ephemeris_type": 0,
        "meta_classification_type": "U",
        "meta_norad_cat_id": 26900,
        "meta_element_set_no": 999,
        "meta_rev_at_epoch": 8885,
        "meta_bstar": 0,
        "meta_mean_motion_dot": -2.65e-06,
        "meta_mean_motion_ddot": 0,
        "tle_line1": "1 26900U 01039A   25349.54794076 -.00000265  00000+0  00000+0 0  9997",
        "tle_line2": "2 26900   5.6536  74.0372 0004502 189.6359 327.9329  1.00270870 88858"
      },
      "geometry": {
        "type": "Point",
        "coordinates": [
          19.296991733989362,
          -4.621082230551376
        ]
      }
    },
    {
      "type": "Feature",
      "properties": {
        "norad_id": 27380,
        "name": "INTELSAT 904 (IS-904)",
        "group": "intelsat",
        "lat": -3.5613240930731136,
        "lon": 37.93657440052181,
        "alt_km": 35785.409540634886,
        "timestamp": "2025-12-19T22:41:52.046730+00:00",
        "meta_object_name": "INTELSAT 904 (IS-904)",
        "meta_object_id": "2002-007A",
        "meta_epoch": "2025-12-19T07:35:21.663744",
        "meta_mean_motion": 1.00271333,
        "meta_eccentricity": 0.0001748,
        "meta_inclination": 6.4701,
        "meta_ra_of_asc_node": 71.3572,
        "meta_arg_of_pericenter": 247.0731,
        "meta_mean_anomaly": 212.076,
        "meta_ephemeris_type": 0,
        "meta_classification_type": "U",
        "meta_norad_cat_id": 27380,
        "meta_element_set_no": 999,
        "meta_rev_at_epoch": 4996,
        "meta_bstar": 0,
        "meta_mean_motion_dot": -2.07e-06,
        "meta_mean_motion_ddot": 0,
        "tle_line1": "1 27380U 02007A   25353.31622296 -.00000207  00000+0  00000+0 0  9996",
        "tle_line2": "2 27380   6.4701  71.3572 0001748 247.0731 212.0760  1.00271333 49965"
      },
      "geometry": {
        "type": "Point",
        "coordinates": [
          37.93657440052181,
          -3.5613240930731136
        ]
      }
    },
    {
      "type": "Feature",
      "properties": {
        "norad_id": 27426,
        "name": "DIRECTV 5 (TEMPO 1)",
        "group": "intelsat",
        "lat": -3.9052552612549247,
        "lon": -40.9066533062276,
        "alt_km": 35774.21955410652,
        "timestamp": "2025-12-19T22:41:52.046743+00:00",
        "meta_object_name": "DIRECTV 5 (TEMPO 1)",
        "meta_object_id": "2002-023A",
        "meta_epoch": "2025-12-19T10:22:10.435008",
        "meta_mean_motion": 1.00272782,
        "meta_eccentricity": 0.0003429,
        "meta_inclination": 4.4182,
        "meta_ra_of_asc_node": 77.5755,
        "meta_arg_of_pericenter": 208.1264,
        "meta_mean_anomaly": 208.0122,
        "meta_ephemeris_type": 0,
        "meta_classification_type": "U",
        "meta_norad_cat_id": 27426,
        "meta_element_set_no": 999,
        "meta_rev_at_epoch": 8632,
        "meta_bstar": 0,
        "meta_mean_motion_dot": -3.6e-07,
        "meta_mean_motion_ddot": 0,
        "tle_line1": "1 27426U 02023A   25353.43206522 -.00000036  00000+0  00000+0 0  9998",
        "tle_line2": "2 27426   4.4182  77.5755 0003429 208.1264 208.0122  1.00272782 86322"
      },
      "geometry": {
        "type": "Point",
        "coordinates": [
          -40.9066533062276,
          -3.9052552612549247
        ]
      }
    },
    {
      "type": "Feature",
      "properties": {
        "norad_id": 27438,
        "name": "INTELSAT 905 (IS-905)",
        "group": "intelsat",
        "lat": -4.0786398820894085,
        "lon": -68.11762355448306,
        "alt_km": 35775.89459099693,
        "timestamp": "2025-12-19T22:41:52.046756+00:00",
        "meta_object_name": "INTELSAT 905 (IS-905)",
        "meta_object_id": "2002-027A",
        "meta_epoch": "2025-12-19T10:59:37.315392",
        "meta_mean_motion": 1.00272292,
        "meta_eccentricity": 0.0002646,
        "meta_inclination": 6.3015,
        "meta_ra_of_asc_node": 71.9788,
        "meta_arg_of_pericenter": 200.1075,
        "meta_mean_anomaly": 203.9148,
        "meta_ephemeris_type": 0,
        "meta_classification_type": "U",
        "meta_norad_cat_id": 27438,
        "meta_element_set_no": 999,
        "meta_rev_at_epoch": 4956,
        "meta_bstar": 0,
        "meta_mean_motion_dot": 1.13e-06,
        "meta_mean_motion_ddot": 0,
        "tle_line1": "1 27438U 02027A   25353.45807078  .00000113  00000+0  00000+0 0  9995",
        "tle_line2": "2 27438   6.3015  71.9788 0002646 200.1075 203.9148  1.00272292 49560"
      },
      "geometry": {
        "type": "Point",
        "coordinates": [
          -68.11762355448306,
          -4.0786398820894085
        ]
      }
    },
    {
      "type": "Feature",
      "properties": {
        "norad_id": 27445,
        "name": "GALAXY 3C (G-3C)",
        "group": "intelsat",
        "lat": -3.165034134421376,
        "lon": -25.634508282742612,
        "alt_km": 35791.26234216061,
        "timestamp": "2025-12-19T22:41:52.046768+00:00",
        "meta_object_name": "GALAXY 3C (G-3C)",
        "meta_object_id": "2002-030A",
        "meta_epoch": "2025-12-19T11:26:15.049248",
        "meta_mean_motion": 1.00271927,
        "meta_eccentricity": 0.0001143,
        "meta_inclination": 3.2798,
        "meta_ra_of_asc_node": 80.4379,
        "meta_arg_of_pericenter": 78.2658,
        "meta_mean_anomaly": 6.3233,
        "meta_ephemeris_type": 0,
        "meta_classification_type": "U",
        "meta_norad_cat_id": 27445,
        "meta_element_set_no": 999,
        "meta_rev_at_epoch": 4469,
        "meta_bstar": 0,
        "meta_mean_motion_dot": -1.31e-06,
        "meta_mean_motion_ddot": 0,
        "tle_line1": "1 27445U 02030A   25353.47656307 -.00000131  00000+0  00000+0 0  9997",
        "tle_line2": "2 27445   3.2798  80.4379 0001143  78.2658   6.3233  1.00271927 44698"
      },
      "geometry": {
        "type": "Point",
        "coordinates": [
          -25.634508282742612,
          -3.165034134421376
        ]
      }
    },
    {
      "type": "Feature",
      "properties": {
        "norad_id": 27513,
        "name": "INTELSAT 906 (IS-906)",
        "group": "intelsat",
        "lat": 4.563357987660553,
        "lon": 133.22033416192488,
        "alt_km": 35805.63404377004,
        "timestamp": "2025-12-19T22:41:52.046780+00:00",
        "meta_object_name": "INTELSAT 906 (IS-906)",
        "meta_object_id": "2002-041A",
        "meta_epoch": "2025-12-19T05:00:36.705024",
        "meta_mean_motion": 1.00272586,
        "meta_eccentricity": 0.000632,
        "meta_inclination": 5.3458,
        "meta_ra_of_asc_node": 75.1553,
        "meta_arg_of_pericenter": 197.8697,
        "meta_mean_anomaly": 314.3156,
        "meta_ephemeris_type": 0,
        "meta_classification_type": "U",
        "meta_norad_cat_id": 27513,
        "meta_element_set_no": 999,
        "meta_rev_at_epoch": 8522,
        "meta_bstar": 0,
        "meta_mean_motion_dot": 3.3e-07,
        "meta_mean_motion_ddot": 0,
        "tle_line1": "1 27513U 02041A   25353.20875816  .00000033  00000+0  00000+0 0  9994",
        "tle_line2": "2 27513   5.3458  75.1553 0006320 197.8697 314.3156  1.00272586 85220"
      },
      "geometry": {
        "type": "Point",
        "coordinates": [
          133.22033416192488,
          4.563357987660553
        ]
      }
    }
  ]
}